{"fetched_at":"2026-03-30T06:02:59Z","count":15439,"tles":[{"name":"STARLINK-32088","line1":"1 59693U 24086M   26087.87531318  .00007954  00000+0  29789-3 0  9993","line2":"2 59693  43.0019 303.9947 0001564 259.1614 100.9062 15.27622167107139","category":"Starlink"}]}