{
  "norad_id": 59693,
  "name": "STARLINK-32088",
  "history": [
    {
      "epoch": "2026-03-28T21:00:27.058752Z",
      "apogee_km": 483.9959741454486,
      "perigee_km": 481.84969740762153,
      "latitude_deg": 2.4357800523876748e-05,
      "longitude_deg": 162.59249721904678,
      "height_km": 482.90162192637246,
      "semi_major_axis_km": 6861.059835776535,
      "eccentricity": 0.00015641,
      "inclination_deg": 43.0019,
      "raan_deg": 303.9947,
      "arg_perigee_deg": 259.1614,
      "mean_anomaly_deg": 100.9062,
      "mean_motion_rev_day": 15.27622167
    }
  ]
}